NORAD_CAT_ID,OBJECT_NAME,OBJECT_TYPE,EPOCH,MEAN_MOTION,ECCENTRICITY,INCLINATION,RA_OF_ASC_NODE,ARG_OF_PERICENTER,MEAN_ANOMALY,BSTAR,MEAN_MOTION_DOT,MEAN_MOTION_DDOT,TLE_LINE0,TLE_LINE1,TLE_LINE2,SEMIMAJOR_AXIS,PERIOD,APOGEE,PERIGEE,DECAYED
54771.0,STARLINK-5451,PAYLOAD,2024-03-04 08:51:13,15.08851429,0.0001624,53.2173,99.8983,86.9146,273.2032,0.00016055,2.269e-05,0.0,0 STARLINK-5451,1 54771U 22175P   24064.36890073  .00002269  00000-0  16055-3 0  9992,2 54771  53.2173  99.8983 0001624  86.9146 273.2032 15.08851429 68983,6917.845,95.437,540.834,538.587,0.0
54771.0,STARLINK-5451,PAYLOAD,2024-03-04 23:09:41,15.08839958,0.0001503,53.2168,97.2254,101.1379,258.9782,1.983e-05,2.8e-07,0.0,0 STARLINK-5451,1 54771U 22175P   24064.96506615  .00000028  00000-0  19830-4 0  9990,2 54771  53.2168  97.2254 0001503 101.1379 258.9782 15.08839958 66910,6917.881,95.438,540.785,538.706,0.0
54771.0,STARLINK-5451,PAYLOAD,2024-03-05 11:52:47,15.08829234,0.0001518,53.2168,94.8452,93.2924,266.8242,-0.0001094,-2.028e-05,0.0,0 STARLINK-5451,1 54771U 22175P   24065.49499440 -.00002028  00000-0 -10940-3 0  9992,2 54771  53.2168  94.8452 0001518  93.2924 266.8242 15.08829234 69150,6917.913,95.438,540.828,538.728,0.0
54771.0,STARLINK-5451,PAYLOAD,2024-03-06 11:43:33,15.08840437,0.0001506,53.2174,90.385,95.1569,264.9595,0.00018087,2.592e-05,0.0,0 STARLINK-5451,1 54771U 22175P   24066.48858796  .00002592  00000-0  18087-3 0  9999,2 54771  53.2174  90.3850 0001506  95.1569 264.9595 15.08840437 67148,6917.879,95.438,540.786,538.702,0.0
54771.0,STARLINK-5451,PAYLOAD,2024-03-07 02:02:02,15.08832309,0.0001488,53.2175,87.7075,99.0714,261.0447,0.00018252,2.617e-05,0.0,0 STARLINK-5451,1 54771U 22175P   24067.08475410  .00002617  00000-0  18252-3 0  9996,2 54771  53.2175  87.7075 0001488  99.0714 261.0447 15.08832309 67235,6917.904,95.438,540.798,538.74,0.0
54771.0,STARLINK-5451,PAYLOAD,2024-03-07 08:23:35,15.08839506,0.000154,53.2179,86.5234,99.1082,261.0084,0.00020179,2.925e-05,0.0,0 STARLINK-5451,1 54771U 22175P   24067.34971231  .00002925  00000-0  20179-3 0  9990,2 54771  53.2179  86.5234 0001540  99.1082 261.0084 15.08839506 69438,6917.882,95.438,540.812,538.682,0.0
54771.0,STARLINK-5451,PAYLOAD,2024-03-08 05:03:36,15.08834813,0.0001567,53.2172,82.6523,80.2847,279.8322,-7.4185e-05,-1.468e-05,0.0,0 STARLINK-5451,1 54771U 22175P   24068.21083456 -.00001468  00000-0 -74185-4 0  9990,2 54771  53.2172  82.6523 0001567  80.2847 279.8322 15.08834813 67401,6917.896,95.438,540.845,538.677,0.0
54771.0,STARLINK-5451,PAYLOAD,2024-03-08 09:49:45,15.08837755,0.0001754,53.2174,81.7599,82.4961,277.6231,-1.7212e-05,-5.62e-06,0.0,0 STARLINK-5451,1 54771U 22175P   24068.40955377 -.00000562  00000-0 -17212-4 0  9993,2 54771  53.2174  81.7599 0001754  82.4961 277.6231 15.08837755 69590,6917.887,95.438,540.966,538.539,0.0
54771.0,STARLINK-5451,PAYLOAD,2024-03-08 17:46:40,15.08841812,0.0001624,53.2177,80.2732,87.2565,272.8613,5.4779e-05,5.84e-06,0.0,0 STARLINK-5451,1 54771U 22175P   24068.74075132  .00000584  00000-0  54779-4 0  9993,2 54771  53.2177  80.2732 0001624  87.2565 272.8613 15.08841812 67481,6917.875,95.437,540.863,538.616,0.0
54771.0,STARLINK-5451,PAYLOAD,2024-03-09 04:54:23,15.08833764,0.0001694,53.2178,78.1962,90.527,269.5916,-3.7537e-05,-8.85e-06,0.0,0 STARLINK-5451,1 54771U 22175P   24069.20443773 -.00000885  00000-0 -37537-4 0  9994,2 54771  53.2178  78.1962 0001694  90.5270 269.5916 15.08833764 67554,6917.899,95.438,540.936,538.593,0.0
54771.0,STARLINK-5451,PAYLOAD,2024-03-09 09:40:32,15.08834928,0.0001646,53.2173,77.3029,87.0831,273.0349,-1.4529e-05,-5.19e-06,0.0,0 STARLINK-5451,1 54771U 22175P   24069.40315783 -.00000519  00000-0 -14529-4 0  9995,2 54771  53.2173  77.3029 0001646  87.0831 273.0349 15.08834928 69741,6917.896,95.438,540.9,538.622,0.0
54771.0,STARLINK-5451,PAYLOAD,2024-03-09 17:37:28,15.0884391,0.0001601,53.2174,75.8145,85.2013,274.9162,8.7246e-05,1.101e-05,0.0,0 STARLINK-5451,1 54771U 22175P   24069.73435336  .00001101  00000-0  87246-4 0  9990,2 54771  53.2174  75.8145 0001601  85.2013 274.9162 15.08843910 67637,6917.868,95.437,540.841,538.626,0.0
54771.0,STARLINK-5451,PAYLOAD,2024-03-10 06:20:33,15.08835745,0.000144,53.2164,73.4359,90.1475,269.9682,0.00011715,1.577e-05,0.0,0 STARLINK-5451,1 54771U 22175P   24070.26427822  .00001577  00000-0  11715-3 0  9995,2 54771  53.2164  73.4359 0001440  90.1475 269.9682 15.08835745 67712,6917.893,95.438,540.755,538.762,0.0
54771.0,STARLINK-5451,PAYLOAD,2024-03-10 07:55:56,15.0883839,0.0001448,53.2166,73.139,86.0384,274.0774,0.00010549,1.391e-05,0.0,0 STARLINK-5451,1 54771U 22175P   24070.33051723  .00001391  00000-0  10549-3 0  9994,2 54771  53.2166  73.1390 0001448  86.0384 274.0774 15.08838390 69885,6917.885,95.438,540.752,538.749,0.0
54771.0,STARLINK-5451,PAYLOAD,2024-03-10 17:28:14,15.08847189,0.0001505,53.218,71.3556,89.1752,270.9413,0.00014562,2.031e-05,0.0,0 STARLINK-5451,1 54771U 22175P   24070.72795138  .00002031  00000-0  14562-3 0  9993,2 54771  53.2180  71.3556 0001505  89.1752 270.9413 15.08847189 67780,6917.858,95.437,540.765,538.682,0.0
54771.0,STARLINK-5451,PAYLOAD,2024-03-11 04:35:57,15.08837862,0.0001668,53.2191,69.2715,97.6426,262.4756,0.00012806,1.751e-05,0.0,0 STARLINK-5451,1 54771U 22175P   24071.19163854  .00001751  00000-0  12806-3 0  9996,2 54771  53.2191  69.2715 0001668  97.6426 262.4756 15.08837862 67858,6917.887,95.438,540.906,538.598,0.0
54771.0,STARLINK-5451,PAYLOAD,2024-03-11 06:11:20,15.08839369,0.0001653,53.2191,68.974,99.6036,260.5143,0.00013587,1.875e-05,0.0,0 STARLINK-5451,1 54771U 22175P   24071.25787693  .00001875  00000-0  13587-3 0  9990,2 54771  53.2191  68.9740 0001653  99.6036 260.5143 15.08839369 70021,6917.882,95.438,540.891,538.604,0.0
54771.0,STARLINK-5451,PAYLOAD,2024-03-12 09:12:53,15.08841577,0.0001626,53.2193,63.9186,105.6685,254.4487,5.5952e-06,-1.99e-06,0.0,0 STARLINK-5451,1 54771U 22175P   24072.38395746 -.00000199  00000-0  55952-5 0  9992,2 54771  53.2193  63.9186 0001626 105.6685 254.4487 15.08841577 68035,6917.876,95.437,540.865,538.616,0.0
54771.0,STARLINK-5451,PAYLOAD,2024-03-13 05:52:54,15.08838841,0.0001372,53.219,60.0542,97.3938,262.721,8.184e-05,1.015e-05,0.0,0 STARLINK-5451,1 54771U 22175P   24073.24507693  .00001015  00000-0  81840-4 0  9995,2 54771  53.2190  60.0542 0001372  97.3938 262.7210 15.08838841 70323,6917.884,95.438,540.698,538.8,0.0
54771.0,STARLINK-5451,PAYLOAD,2024-03-14 05:43:41,15.0883863,0.0001372,53.2185,55.5951,94.1122,266.0027,0.00012062,1.632e-05,0.0,0 STARLINK-5451,1 54771U 22175P   24074.23867831  .00001632  00000-0  12062-3 0  9992,2 54771  53.2185  55.5951 0001372  94.1122 266.0027 15.08838630 68315,6917.885,95.438,540.699,538.8,0.0
54771.0,STARLINK-5451,PAYLOAD,2024-03-15 03:59:06,15.08833975,0.0001307,53.2185,51.4331,94.8218,265.2923,2.5903e-05,1.24e-06,0.0,0 STARLINK-5451,1 54771U 22175P   24075.16604517  .00000124  00000-0  25903-4 0  9999,2 54771  53.2185  51.4331 0001307  94.8218 265.2923 15.08833975 68451,6917.899,95.438,540.668,538.86,0.0
54771.0,STARLINK-5451,PAYLOAD,2024-03-15 21:28:20,15.08836049,0.0001297,53.2182,48.1617,91.5741,268.54,4.2883e-05,3.95e-06,0.0,0 STARLINK-5451,1 54771U 22175P   24075.89468536  .00000395  00000-0  42883-4 0  9994,2 54771  53.2182  48.1617 0001297  91.5741 268.5400 15.08836049 70725,6917.892,95.438,540.655,538.86,0.0
54771.0,STARLINK-5451,PAYLOAD,2024-03-16 07:00:39,15.08839153,0.0001353,53.2188,46.3774,90.6132,269.5015,6.0041e-05,6.68e-06,0.0,0 STARLINK-5451,1 54771U 22175P   24076.29212415  .00000668  00000-0  60041-4 0  9991,2 54771  53.2188  46.3774 0001353  90.6132 269.5015 15.08839153 68620,6917.883,95.438,540.684,538.812,0.0
54771.0,STARLINK-5451,PAYLOAD,2024-03-17 06:51:26,15.08841357,0.0001358,53.2191,41.9153,103.1016,257.0128,0.00012794,1.749e-05,0.0,0 STARLINK-5451,1 54771U 22175P   24077.28572220  .00001749  00000-0  12794-3 0  9996,2 54771  53.2191  41.9153 0001358 103.1016 257.0128 15.08841357 70935,6917.876,95.437,540.681,538.802,0.0
54771.0,STARLINK-5451,PAYLOAD,2024-03-18 03:31:27,15.08840956,0.0001387,53.2195,38.0488,98.9477,261.1673,5.494e-05,5.87e-06,0.0,0 STARLINK-5451,1 54771U 22175P   24078.14684505  .00000587  00000-0  54940-4 0  9991,2 54771  53.2195  38.0488 0001387  98.9477 261.1673 15.08840956 68900,6917.877,95.437,540.702,538.783,0.0
54771.0,STARLINK-5451,PAYLOAD,2024-03-18 21:00:41,15.08843521,0.0001383,53.2196,34.7775,97.8158,262.2991,3.8245e-05,3.21e-06,0.0,0 STARLINK-5451,1 54771U 22175P   24078.87548356  .00000321  00000-0  38245-4 0  9990,2 54771  53.2196  34.7775 0001383  97.8158 262.2991 15.08843521 71172,6917.87,95.437,540.691,538.778,0.0
54771.0,STARLINK-5451,PAYLOAD,2024-03-19 03:22:13,15.08847986,0.0001401,53.2195,33.5907,98.2237,261.8914,7.1764e-05,8.55e-06,0.0,0 STARLINK-5451,1 54771U 22175P   24079.14043951  .00000855  00000-0  71764-4 0  9997,2 54771  53.2195  33.5907 0001401  98.2237 261.8914 15.08847986 71213,6917.856,95.437,540.69,538.752,0.0
54771.0,STARLINK-5451,PAYLOAD,2024-03-19 20:51:30,15.08828015,0.0001528,53.22,30.3208,103.8722,256.2441,-3.5057e-05,-8.46e-06,0.0,0 STARLINK-5451,1 54771U 22175P   24079.86909833 -.00000846  00000-0 -35057-4 0  9993,2 54771  53.2200  30.3208 0001528 103.8722 256.2441 15.08828015 69167,6917.917,95.438,540.839,538.725,0.0
54771.0,STARLINK-5451,PAYLOAD,2024-03-20 06:23:49,15.08819192,0.0001025,53.2194,28.536,98.4518,261.659,-0.00010196,-1.909e-05,0.0,0 STARLINK-5451,1 54771U 22175P   24080.26655060 -.00001909  00000-0 -10196-3 0  9996,2 54771  53.2194  28.5360 0001025  98.4518 261.6590 15.08819192 69229,6917.944,95.439,540.518,539.1,0.0
54771.0,STARLINK-5451,PAYLOAD,2024-03-21 03:03:49,15.08849397,0.0001461,53.2202,24.6661,113.9776,246.137,8.389e-05,1.048e-05,0.0,0 STARLINK-5451,1 54771U 22175P   24081.12765099  .00001048  00000-0  83890-4 0  9990,2 54771  53.2202  24.6661 0001461 113.9776 246.1370 15.08849397 69351,6917.852,95.437,540.727,538.706,0.0
